#dP2022 12 13  0  0  0.00000000      96 __u+U IGS14 FIT  IAC
## 2240 172800.00000000   900.00000000 59926 0.0000000000000
+  117   C06C07C08C09C10C11C12C13C14C16C19C20C21C22C23C24C25
+        C26C27C28C29C30C32C33C34C35C36C37C38C39C40C41C42C43
+        C44C45C46E01E02E03E04E05E07E08E09E10E12E13E14E15E18
+        E19E21E24E25E26E27E30E31E33E34E36G01G02G03G04G05G06
+        G07G08G09G10G11G12G13G14G15G16G17G18G19G20G21G22G23
+        G24G25G26G27G29G30G31G32J02J03J04R01R02R03R04R05R07
+        R08R09R11R12R13R14R15R17R18R19R20R21R22R24R25  0  0
++         7  9  7  7  9  7  7  7  7  7  6  5  6  6  6  6  6
++         6  6  6  6  6  6  6  6  6  6  6  6  6  7  6  6  6
++         6  6  6  4  4  4  4  4  4  4  4  4  4  4  5  4  5
++         4  5  4  4  4  4  4  4  4  4  4  3  3  4  4  3  4
++         3  3  3  4  4  4  3  3  3  4  3  3  4  4  3  4  4
++         3  3  4  4  3  3  4  4  9  9 10  8  6  7  7  7  7
++         7  7  6  7  8  7  7  7  7  8  8  7  7  7  8  0  0
%c M  cc GPS ccc cccc cccc cccc cccc ccccc ccccc ccccc ccccc
%c cc cc ccc ccc cccc cccc cccc cccc ccccc ccccc ccccc ccccc
%f  1.2500000  1.025000000  0.00000000000  0.000000000000000
%f  0.0000000  0.000000000  0.00000000000  0.000000000000000
%i    0    0    0    0      0      0      0      0         0
%i    0    0    0    0      0      0      0      0         0
/* INFORMATION & ANALYSIS CENTER (IAC)            FINAL DATA
/* S/V CLOCKS ARE ALIGNED TO GNSS TIME                      
/* G:C1WC2W R:C1PC2P E:C1XC5X C:C2IC6I J:C1CC2S             
/* PCV:IGS20_2233 OL/AL:FES2004  NONE     YN ORB:CoN CLK:CoN
*  2022 12 13  3 30  0.00000000
PC06    -65.250907  29023.234316  30661.151463    219.033828
PC07 -15952.065608  30748.410114 -24101.483789     82.981112
PC08  -8997.784208  40744.310245  -5359.844193    522.171264
PC09   6410.264375  32297.478486  26997.611931   -784.181378
PC10  -9197.516509  30555.154339 -27466.424967     52.444658
PC11  22607.435795   2059.875715  16286.281981   -239.028218
PC12  23483.317138  15063.416670     37.651993    343.627666
PC13  -3885.745469  41793.220545   1763.844231    156.817192
PC14  25618.370812  -9079.806786   6225.197712    260.955036
PC16  -5044.880468  25948.558941  33092.385563    102.427374
PC19 -23236.560740  15133.159596   3210.696576   -904.266537
PC20 -24428.182731   3043.533251 -13156.579919    807.422483
PC21  10891.915807  11841.511777  22810.145838   -927.127727
PC22  -8625.851228  19045.725270  18486.000407   -742.996619
PC23   3645.972886 -27397.408373  -3896.281284   -871.854097
PC24  15791.583530   6192.530744 -22170.055719   -682.108593
PC25  13139.616121 -16653.516506 -18154.918480     38.734950
PC26   9701.637890  22275.483648 -13708.349085    -49.100178
PC27 -18902.237019 -18767.364018   8286.354264     65.423013
PC28  -2639.749718 -18617.018347  20629.337303     46.629514
PC29 -16392.740791   7619.117768 -21260.630703     53.013066
PC30 -25384.171844  -7955.009876  -8400.288404      1.190837
PC32 -10909.446112 -11809.191664 -22799.614985   -684.652576
PC33  23192.131011 -15204.418122  -3077.373992   -894.927269
PC34  25292.305920   7089.786390   9447.925798     59.907612
PC35   1537.113232  18070.207384 -21222.754921    130.665049
PC36 -13771.288322  15681.676192  18536.662483   -771.691638
PC37  -8395.159113 -23452.180255  12618.209309   -883.853694
PC38 -12683.454395  38183.652473 -12292.210360     44.584072
PC39  -8090.456570  23522.850680  34085.171866     -1.063740
PC40 -24078.258232  25151.349262 -23934.638246    -10.086743
PC41   9149.249351 -19147.599147 -18076.998046   -374.639496
PC42  23971.112447  -2014.015693  14171.653672   -840.932347
PC43  17116.865517  -7044.778430  20885.566867     29.830220
PC44  19417.776045  18197.107239  -8460.644328    143.358515
PC45  -3382.142275  27456.748138   3537.884860    -34.034139
PC46 -15924.291271  -4171.578796  22531.970244    -19.214474
PE01  20339.899442 -19075.561218  -9947.848349   -575.688693
PE02 -20254.033527  19269.836524   9689.219322      8.237409
PE03 -23398.443150   9781.528908  15260.842823   -629.257736
PE04   4157.735983 -16764.465896 -24039.918752    -12.939994
PE05 -29310.709573  -3116.594168  -2696.159132   -115.606514
PE07  18039.955613  14010.819965  18821.876754     -6.727717
PE08  -4169.851308  16622.821114  24127.986834     -1.797172
PE09 -17890.852535 -13939.338687 -19029.906480   -762.063046
PE10  -9603.136854 -27206.198233   6638.314498   -497.415197
PE12  -2202.936891 -25321.035748  15165.973808   -329.412303
PE13  15492.900668  25032.443327   3103.787696    430.385647
PE14  20718.045964  12677.192052 -10669.730397     83.038585
PE15   2075.071769  25174.129029 -15419.935897    701.299992
PE18 -30539.606857  -3739.223552  -2527.355288   -634.626021
PE19  25204.560866  -8105.533675 -13246.349240  -3757.988759
PE21  19404.140345  -2129.343032 -22255.063531   -500.025897
PE24  -6591.413597 -18172.035108  22412.173593   -998.740363
PE25 -19285.127842   1776.391584  22386.707904   -594.802632
PE26  19695.646683   9328.455137  20037.671335  -1883.005443
PE27   7395.506798  17360.778594 -22798.396168   -461.874237
PE30  -9484.856532  26458.160619  -9258.013621  -1073.606471
PE31   8855.140539 -26454.715526   9918.939105   -510.524641
PE33  12489.057189 -10449.278594  24728.077905   -455.485821
PE34 -12367.127578  10634.862733 -24697.975351    -19.342962
PE36 -19679.149134 -10233.979082 -19589.658598   -474.559852
PG01  16134.747130   3641.734426  20555.196064    238.505647
PG02 -15655.641424   1061.732196 -20764.769800   -633.306569
PG03  19169.265146  -6520.983618  17010.202704   -375.246351
PG04  26066.213755    140.548533  -5387.791682    -69.568079
PG05 -13381.024821  -7360.066665 -21905.315896   -107.860607
PG06  -4899.231735 -24868.332378   7863.118772    538.979674
PG07  10529.832810 -12494.924833 -20417.534234    275.164961
PG08  25254.391445   6529.655103  -6018.406887    -98.378761
PG09  20176.881211  -8749.336434 -15006.746688   -254.322007
PG10  -9696.294023  23012.088698   8729.648763    -15.856963
PG11 -12097.165741 -23189.964092  -4723.155333    -56.000519
PG12 -19412.366554   4319.775781  17281.924947   -315.286710
PG13 -20106.426803 -13336.056541 -11492.768380    440.997492
PG14  12200.031009 -22630.303684   6423.886349    -69.027895
PG15 -25754.520149  -4113.979050  -6200.731183     -4.557382
PG16   9468.187116  12091.284022 -21923.266891   -526.202702
PG17   7768.071618 -13634.155011  21882.736680    685.494551
PG18  -8650.265688  14997.377863 -20097.941426    -56.995458
PG19  -5422.639271 -15571.425161  20652.856060    249.785644
PG20  -5198.853054 -18638.758332 -18266.807601    463.945303
PG21  18801.498751  11309.679799  16099.094327    153.971818
PG22   8422.890855  15923.451538  20000.874441    383.601318
PG23 -16464.582415  20598.182165  -2452.642736      0.002293
PG24 -18497.929237  -6951.924179  17593.931650     18.226946
PG25 -19472.395262  14408.270753  10256.730048    401.523062
PG26    928.621744  20771.542655 -16433.296297    238.260913
PG27  17823.836407  12735.339279 -15523.917863    154.628433
PG29 -22230.405109   5096.637456 -13719.630884   -573.636258
PG30   1934.350474 -22271.764447 -14054.735611   -535.485213
PG31   5623.344289  24987.906136   5882.336751   -203.096095
PG32  -3575.005688  14989.548891  21775.946817   -327.765968
PJ02 -33633.729364  24960.007915  10223.149815     -0.306426
PJ03 -21676.421550  20101.156127 -25424.669621     -6.555029
PJ04 -27117.234570  32477.534427   7574.465937    115.060546
PR01 -14910.571645  -4971.458658 -20095.860385     19.449578
PR02 -24432.472275   5279.507177  -4857.470136    -23.405807
PR03 -18710.478416  12167.720419  12330.893872     68.967250
PR04  -2917.657563  11877.387031  22405.146356    168.396505
PR05  14579.349742   5324.831994  20258.309075    104.447008
PR07  18297.882403 -12273.596258 -12868.438686     45.978657
PR08   2740.110508 -11957.266682 -22317.443897    -68.535508
PR09  11986.990509  -5029.857544 -21918.837609     92.720409
PR11   2463.513631 -24867.407526   5098.350128     15.214843
PR12  -6930.323706 -14064.893576  20148.543950     23.580866
PR13 -11619.302841   3263.065149  22453.569509    -29.875966
PR14  -9735.399002  20780.218200  11161.221342     24.087921
PR15  -2174.507483  24669.107063  -6096.445347     92.371541
PR17  -6773.894186   8105.262813 -23202.013347    586.459808
PR18   7725.168330  17526.001150 -16851.924080     56.536636
PR19  17080.961189  18692.298086  -3051.338681   -214.368445
PR20  18044.514318   7579.460545  16396.478597    -83.857538
PR21   5334.485700  -9282.431959  23161.011260   -357.053321
PR22  -7410.866183 -18250.544030  16231.538716     19.360543
PR24 -18248.096005  -6285.214387 -16664.095470    132.412696
PR25   7666.734028  -7721.344276  23080.616921     48.748294
EOF
